OSCAR 7 (AO-7)          
1 07530U 74089B   23001.49755983 -.00000022  00000+0  15138-3 0  9994
2 07530 101.9303 347.1678 0012370  23.3776  97.5827 12.53659769202286
PHASE 3B (AO-10)        
1 14129U 83058B   23001.39323939  .00000135  00000+0  00000+0 0  9995
2 14129  26.7718  63.6932 6031800 136.1728 291.5844  2.05868023269481
UOSAT 2 (UO-11)         
1 14781U 84021B   23001.43705993  .00001388  00000+0  17242-3 0  9990
2 14781  97.6386 345.1181 0009262  38.8808 321.3072 14.84081628 69408
LUSAT (LO-19)           
1 20442U 90005G   23001.45636657  .00000200  00000+0  89718-4 0  9992
2 20442  98.8225 334.6251 0010946 311.6061  48.4183 14.33132048721467
EYESAT A (AO-27)        
1 22825U 93061C   23001.57150421  .00000116  00000+0  62665-4 0  9995
2 22825  98.8656  41.5793 0008304 187.3433 172.7629 14.30223715526472
ITAMSAT (IO-26)         
1 22826U 93061D   23001.33664676  .00000127  00000+0  66486-4 0  9999
2 22826  98.8601  41.2086 0009080 174.6667 185.4613 14.30575341526700
RADIO ROSTO (RS-15)     
1 23439U 94085A   23001.53059054 -.00000039  00000+0  10000-3 0  9990
2 23439  64.8129 185.2380 0166451 238.8039 119.6476 11.27573213153821
JAS-2 (FO-29)           
1 24278U 96046B   23001.45217258 -.00000009  00000+0  23651-4 0  9998
2 24278  98.5146   2.8623 0351074 129.3975 233.8814 13.53126749302381
TECHSAT 1B (GO-32)      
1 25397U 98043D   23001.60534738  .00000104  00000+0  65237-4 0  9993
2 25397  98.8462 317.8503 0000323 215.8566 144.2591 14.23799685271621
ISS (ZARYA)             
1 25544U 98067A   23001.53250807  .00016704  00000+0  30181-3 0  9999
2 25544  51.6444  74.0407 0005211 211.7305 280.9843 15.49823312375946
PCSAT (NO-44)           
1 26931U 01043C   23001.42205098  .00000152  00000+0  89398-4 0  9993
2 26931  67.0512 267.3804 0005299 276.9825  83.0674 14.30785350109721
SAUDISAT 1C (SO-50)     
1 27607U 02058C   23001.53078218  .00001462  00000+0  21864-3 0  9993
2 27607  64.5553  55.5938 0080280 256.9883 102.2248 14.76537942 77614
CUTE-1 (CO-55)          
1 27844U 03031E   23001.07697720  .00000370  00000+0  18525-3 0  9999
2 27844  98.6793  10.7960 0008876 247.6001 112.4237 14.22572375 11977
CUBESAT XI-IV (CO-57)   
1 27848U 03031J   23001.24319027  .00000304  00000+0  15701-3 0  9993
2 27848  98.6833  11.4317 0008683 263.4655  96.5535 14.22112459 11771
MOZHAYETS 4 (RS-22)     
1 27939U 03042A   23001.53910355  .00001225  00000+0  22381-3 0  9994
2 27939  98.2162 147.5896 0011679 306.2375  53.7767 14.67703578 30095
CUBESAT XI-V            
1 28895U 05043F   23001.58472628  .00001539  00000+0  29722-3 0  9994
2 28895  98.1304 135.2789 0015516 235.1586 124.8158 14.64777289916417
FALCONSAT-3             
1 30776U 07006E   23001.39834136  .00353081  00000+0  11159-2 0  9997
2 30776  35.4244  21.7749 0008222 174.9360 185.1468 15.89371320880605
CUTE-1.7+APD II (CO-65) 
1 32785U 08021C   23001.14110137  .00003499  00000+0  36370-3 0  9996
2 32785  97.6844 331.1196 0011131 303.1383  56.8766 14.90486687795920
DELFI-C3 (DO-64)        
1 32789U 08021G   23001.52890119  .00023912  00000+0  11173-2 0  9992
2 32789  97.3240  26.1918 0009105   5.6206 354.5130 15.19756798801948
SEEDS II (CO-66)        
1 32791U 08021J   23001.19206661  .00005272  00000+0  49923-3 0  9995
2 32791  97.6357 336.4752 0011022 248.4862 111.5183 14.93989485796700
YUBILEINY (RS-30)       
1 32953U 08025A   23001.52639626  .00000024  00000+0  10000-3 0  9991
2 32953  82.5040  60.7552 0019606 184.6300 175.4610 12.43116861662946
KKS-1 (KISEKI)          
1 33499U 09002H   23001.57813464  .00001261  00000+0  18910-3 0  9994
2 33499  98.1928 251.6321 0009944  46.7801 313.4237 14.76374144749474
SWISSCUBE               
1 35932U 09051B   23001.57160428  .00001036  00000+0  24046-3 0  9994
2 35932  98.5423 227.8029 0007826 151.1983 208.9648 14.57165899704942
BEESAT-1                
1 35933U 09051C   23001.45797167  .00000895  00000+0  20925-3 0  9992
2 35933  98.5358 229.1670 0005850 161.0699 199.0717 14.57144629705009
ITUPSAT1                
1 35935U 09051E   22365.91055627  .00000843  00000+0  20151-3 0  9999
2 35935  98.5459 228.6072 0008012 169.7779 190.3582 14.56232265704646
XIWANG-1 (HOPE-1)       
1 36122U 09072B   23001.41164938  .00000001  00000+0  11506-3 0  9990
2 36122 100.2138 330.7382 0006899 244.5585 115.4815 13.16375812626851
JUGNU                   
1 37839U 11058B   23001.53660690  .00000486  00000+0  11648-3 0  9996
2 37839  19.9625  53.9481 0018792 180.3947 327.9527 14.12849230580184
SRMSAT                  
1 37841U 11058D   23001.59558030  .00000423  00000+0  87461-4 0  9997
2 37841  19.9709 137.1749 0011944   1.4974  90.9791 14.10808066579253
M-CUBED & EXP-1 PRIME   
1 37855U 11061F   23001.58576597  .00016395  00000+0  64518-3 0  9995
2 37855 101.7128 231.5753 0140602 186.8188 173.1120 15.17076219611696
STRAND-1                
1 39090U 13009E   23001.48531536  .00000374  00000+0  14500-3 0  9991
2 39090  98.3911 199.3693 0009818  46.3218 313.8780 14.35398967515808
SOMP                    
1 39134U 13015E   23001.46710015  .00035320  00000+0  97883-3 0  9990
2 39134  64.8576 128.8599 0027805 254.3746 105.4321 15.36395260537183
BEESAT-3                
1 39135U 13015F   22365.83900842  .00022657  00000+0  78484-3 0  9998
2 39135  64.8623 172.6059 0033896 253.5832 106.1573 15.29297995536239
BEESAT-2                
1 39136U 13015G   23001.49482165  .00019767  00000+0  72205-3 0  9995
2 39136  64.8710 179.9759 0025608 287.7326  72.1010 15.27862581536115
ZACUBE-1 (TSHEPISOSAT)  
1 39417U 13066B   23001.43627157  .00002822  00000+0  34162-3 0  9993
2 39417  97.6636 329.3840 0058136 114.5777 246.1511 14.83214607492468
GOMX-1                  
1 39430U 13066Q   23001.45926873  .00001395  00000+0  25309-3 0  9994
2 39430  97.7961 262.2470 0148765 139.8771 221.3533 14.60773012485197
CUBEBUG-2 (LO-74)       
1 39440U 13066AA  23001.43121774  .00002488  00000+0  33680-3 0  9995
2 39440  97.7528 316.0254 0076756 208.1755 151.5294 14.77823653489510
FUNCUBE-1 (AO-73)       
1 39444U 13066AE  23001.43291695  .00003447  00000+0  40373-3 0  9992
2 39444  97.6505 331.8270 0056892 101.7268 259.0338 14.84487523490882
UWE-3                   
1 39446U 13066AG  23001.31167581  .00002452  00000+0  31533-3 0  9990
2 39446  97.7133 322.2094 0067865 162.8400 197.5129 14.80403443489728
SPROUT                  
1 39770U 14029E   23001.32736489  .00011284  00000+0  10578-2 0  9998
2 39770  97.9570 125.1000 0008089 145.8907 214.2965 14.94165014467172
UNISAT-6                
1 40012U 14033C   23001.44843428  .00002693  00000+0  39295-3 0  9991
2 40012  97.6602 183.9483 0055629 236.8434 122.7432 14.75524559459176
DUCHIFAT-1              
1 40021U 14033M   23001.44484961  .00006144  00000+0  57307-3 0  9993
2 40021  98.0381 320.7018 0013504 103.7408 256.5315 14.94528451464256
QB50P1                  
1 40025U 14033R   23001.57180211  .00004157  00000+0  41910-3 0  9997
2 40025  97.9798 305.8266 0013033 120.6603 239.5902 14.91626700463795
NUDT-PHONESAT           
1 40900U 15049B   23001.57538648  .00078340  00000+0  13064-2 0  9991
2 40900  97.3819  27.2177 0004307 310.7868 148.0700 15.51702139405143
ZDPS 2A                 
1 40901U 15049C   23001.49721782  .00021436  00000+0  75405-3 0  9998
2 40901  97.4561  14.9272 0010827  17.2854 342.8752 15.29310706403662
ZDPS 2B                 
1 40902U 15049D   23001.57630837  .00021205  00000+0  73576-3 0  9999
2 40902  97.4659  13.0081 0010701  14.2884 139.9569 15.29761743403651
XW-2A                   
1 40903U 15049E   23001.60718385  .00062401  00000+0  60081-3 0  9999
2 40903  97.1502  66.5298 0008125 101.2675   2.8264 15.66311844410125
KAITUO 1A               
1 40904U 15049F   23001.60717073  .00011216  00000+0  51712-3 0  9992
2 40904  97.4985   7.5601 0014374  44.8590  73.3217 15.20336915402946
2015-049G               
1 40905U 15049G   23001.57436916  .00005260  00000+0  26105-3 0  9993
2 40905  97.5208   4.7304 0015847  49.2816  44.9722 15.18030259402653
XW-2C                   
1 40906U 15049H   23001.60225775  .00008758  00000+0  39087-3 0  9995
2 40906  97.4955   8.7731 0014207  33.2967  61.6284 15.21526622403028
XW-2D                   
1 40907U 15049J   23001.58568804  .00010199  00000+0  44119-3 0  9990
2 40907  97.4942   8.9509 0013300  29.7081  64.5264 15.22560118403085
LILACSAT-2              
1 40908U 15049K   23001.58852263  .00004765  00000+0  24273-3 0  9997
2 40908  97.5227   5.4525 0016276  53.5711  41.7715 15.17156050402518
XW-2E                   
1 40909U 15049L   23001.57476708  .00016978  00000+0  62174-3 0  9994
2 40909  97.4626  14.0441 0010971   7.5491  90.9273 15.28037932403610
XW-2F                   
1 40910U 15049M   23001.57277464  .00016818  00000+0  62626-3 0  9999
2 40910  97.4715  13.2294 0012090   7.9273  90.4856 15.27478284403377
XW-2B                   
1 40911U 15049N   23001.56172081  .00009944  00000+0  43215-3 0  9993
2 40911  97.4934   9.4538 0013111  31.3663  64.4573 15.22411988402962
KAITUO 1B               
1 40912U 15049P   23001.59574451  .00019904  00000+0  65914-3 0  9991
2 40912  97.4308  17.6190 0010275 330.4122 124.8440 15.31291700404014
TIANWANG 1A (TW-1A)     
1 40928U 15051D   22363.79982108  .09201092  21690-5  85924-3 0  9992
2 40928  96.9993  28.5009 0003467 313.2323 142.4476 16.38834510408965
LAPAN-A2                
1 40931U 15052B   23001.38381934  .00001036  00000+0  54661-4 0  9990
2 40931   5.9978 197.0025 0012280  91.3376 268.8189 14.76957521392657
E-ST@R-II               
1 41459U 16025D   23001.45089866  .00016995  00000+0  65158-3 0  9996
2 41459  98.1910 187.2014 0130032 315.3018  43.7973 15.18975197367491
AAUSAT 4                
1 41460U 16025E   23001.44764267  .00038711  00000+0  11685-2 0  9997
2 41460  98.1783 195.6481 0102859 283.5363 136.8669 15.29022841368080
NUSAT-1 (FRESCO)        
1 41557U 16033B   23001.57821697  .00025100  00000+0  60232-3 0  9999
2 41557  97.3887 105.4298 0010057  30.8768  94.0050 15.41311205367827
